NORAD_CAT_ID,OBJECT_NAME,OBJECT_TYPE,EPOCH,MEAN_MOTION,ECCENTRICITY,INCLINATION,RA_OF_ASC_NODE,ARG_OF_PERICENTER,MEAN_ANOMALY,BSTAR,MEAN_MOTION_DOT,MEAN_MOTION_DDOT,TLE_LINE0,TLE_LINE1,TLE_LINE2,SEMIMAJOR_AXIS,PERIOD,APOGEE,PERIGEE,DECAYED
51137.0,STARLINK-3180,PAYLOAD,2022-04-19 14:00:01,15.188135699999998,0.0001796,53.2171,194.4427,42.6263,132.063,-0.03224,-0.00631745,0.0,0 STARLINK-3180,1 51137U 22005AK  22109.58334491 -.00631745  00000-0 -32240-1 0  9997,2 51137  53.2171 194.4427 0001796  42.6263 132.0630 15.18813570  3620,6887.562,94.811,510.664,508.19,0.0
51137.0,STARLINK-3180,PAYLOAD,2022-04-20 06:00:00,15.17855205,0.0001902,53.2176,191.4056,41.5327,179.1973,-0.037852,-0.00722859,0.0,0 STARLINK-3180,1 51137U 22005AK  22110.25001157 -.00722859  00000-0 -37852-1 0  9994,2 51137  53.2176 191.4056 0001902  41.5327 179.1973 15.17855205 15566,6890.4609999999975,94.871,513.637,511.015,0.0
51137.0,STARLINK-3180,PAYLOAD,2022-04-20 14:00:01,15.17344139,0.0001989,53.2175,189.8909,39.0002,203.8461,-0.038343,-0.00721609,0.0,0 STARLINK-3180,1 51137U 22005AK  22110.58334491 -.00721609  00000-0 -38343-1 0  9998,2 51137  53.2175 189.8909 0001989  39.0002 203.8461 15.17344139  3642,6892.0080000000025,94.903,515.244,512.502,0.0
51137.0,STARLINK-3180,PAYLOAD,2022-04-20 22:00:00,15.16836618,0.0001676999999999,53.2175,188.3743,47.3414,217.0089,-0.039169,-0.00726097,0.0,0 STARLINK-3180,1 51137U 22005AK  22110.91667824 -.00726097  00000-0 -39169-1 0  9997,2 51137  53.2175 188.3743 0001677  47.3414 217.0089 15.16836618  3634,6893.545,94.934,516.566,514.254,0.0
51137.0,STARLINK-3180,PAYLOAD,2022-04-21 14:00:01,15.15725599,0.000185,53.2169,185.3476,44.6903,260.8763,-0.033009,-0.00594338,0.0,0 STARLINK-3180,1 51137U 22005AK  22111.58334491 -.00594338  00000-0 -33009-1 0  9990,2 51137  53.2169 185.3476 0001850  44.6903 260.8763 15.15725599  3610,6896.9140000000025,95.004,520.055,517.503,0.0
51137.0,STARLINK-3180,PAYLOAD,2022-04-21 22:00:00,15.15306445,0.0001726,53.2175,183.8356,40.288,284.8976,-0.040908,-0.00725851,0.0,0 STARLINK-3180,1 51137U 22005AK  22111.91667824 -.00725851  00000-0 -40908-1 0  9998,2 51137  53.2175 183.8356 0001726  40.2880 284.8976 15.15306445  3634,6898.185,95.03,521.241,518.86,0.0
51137.0,STARLINK-3180,PAYLOAD,2022-04-22 06:00:00,15.14795242,0.0001705,53.2176,182.3248,40.7314,303.5073,-0.041314,-0.0072268999999999,0.0,0 STARLINK-3180,1 51137U 22005AK  22112.25001157 -.00722690  00000-0 -41314-1 0  9997,2 51137  53.2176 182.3248 0001705  40.7314 303.5073 15.14795242 15864,6899.736999999999,95.062,522.779,520.4259999999998,0.0
51137.0,STARLINK-3180,PAYLOAD,2022-04-22 14:00:01,15.14284278,0.0001791,53.2175,180.8173,37.0964,325.5818,-0.041865,-0.00721853,0.0,0 STARLINK-3180,1 51137U 22005AK  22112.58334491 -.00721853  00000-0 -41865-1 0  9994,2 51137  53.2175 180.8173 0001791  37.0964 325.5818 15.14284278  3644,6901.2890000000025,95.094,524.39,521.918,0.0
51137.0,STARLINK-3180,PAYLOAD,2022-04-23 06:00:02,15.13265376,0.0001717,53.2175,177.8005,40.2376,357.5458,-0.043175,-0.00723198,0.0,0 STARLINK-3180,1 51137U 22005AK  22113.25002315 -.00723198  00000-0 -43175-1 0  9996,2 51137  53.2175 177.8005 0001717  40.2376 357.5458 15.13265376 16012,6904.387,95.158,527.437,525.066,0.0
51137.0,STARLINK-3180,PAYLOAD,2022-04-23 14:00:01,15.12645784,0.0001761999999999,53.2169,176.2953,44.0501,10.3359,-0.035023,-0.00578959,0.0,0 STARLINK-3180,1 51137U 22005AK  22113.58334491 -.00578959  00000-0 -35023-1 0  9991,2 51137  53.2169 176.2953 0001762  44.0501  10.3359 15.12645784  3601,6906.272,95.197,529.354,526.92,0.0
51137.0,STARLINK-3180,PAYLOAD,2022-04-24 14:00:01,15.11111971,0.000198,53.2169,171.7852,34.9168,65.5927,-0.035501,-0.00563284,0.0,0 STARLINK-3180,1 51137U 22005AK  22114.58334491 -.00563284  00000-0 -35501-1 0  9998,2 51137  53.2169 171.7852 0001980  34.9168  65.5927 15.11111971 16228,6910.945,95.294,534.178,531.441,0.0
51137.0,STARLINK-3180,PAYLOAD,2022-04-24 22:00:00,15.10714031,0.0001811,53.2175,170.2835,39.6206,74.9807,-0.046233,-0.00721193,0.0,0 STARLINK-3180,1 51137U 22005AK  22114.91667824 -.00721193  00000-0 -46233-1 0  9993,2 51137  53.2175 170.2835 0001811  39.6206  74.9807 15.10714031 16279,6912.158,95.319,535.275,532.771,0.0
51137.0,STARLINK-3180,PAYLOAD,2022-04-25 14:00:01,15.09596276,0.0002052,53.217,167.2855,35.2101,105.9039,-0.038274,-0.00581056,0.0,0 STARLINK-3180,1 51137U 22005AK  22115.58334491 -.00581056  00000-0 -38274-1 0  9996,2 51137  53.2170 167.2855 0002052  35.2101 105.9039 15.09596276  3608,6915.57,95.39,538.854,536.016,0.0
51137.0,STARLINK-3180,PAYLOAD,2022-04-25 22:00:00,15.09049822,0.0001809,53.2175,165.7872,39.7714,113.6276,-0.019764,-0.00303565,0.0,0 STARLINK-3180,1 51137U 22005AK  22115.91667824 -.00303565  00000-0 -19764-1 0  9992,2 51137  53.2175 165.7872 0001809  39.7714 113.6276 15.09049822  3657,6917.239000000001,95.424,540.355,537.8530000000002,0.0
51137.0,STARLINK-3180,PAYLOAD,2022-04-26 06:00:00,15.08837985,0.0002008,53.2177,164.291,36.6085,128.5005,-0.00013525,-2.44e-05,0.0,0 STARLINK-3180,1 51137U 22005AK  22116.25001157 -.00002440  00000-0 -13525-3 0  9990,2 51137  53.2177 164.2910 0002008  36.6085 128.5005 15.08837985 16478,6917.887,95.438,541.141,538.362,0.0
51137.0,STARLINK-3180,PAYLOAD,2022-04-26 14:00:01,15.08868797,0.0002283,53.216,162.7923,43.2633,133.5833,-0.0047212,-0.0007471,0.0,0 STARLINK-3180,1 51137U 22005AK  22116.58335648 -.00074710  00000-0 -47212-2 0  9999,2 51137  53.2160 162.7923 0002283  43.2633 133.5833 15.08868797 16521,6917.792,95.436,541.237,538.078,0.0
51137.0,STARLINK-3180,PAYLOAD,2022-04-26 22:00:00,15.08860648,0.0001869,53.215,161.291,43.8907,144.5265,-0.0034651,-0.00055046,0.0,0 STARLINK-3180,1 51137U 22005AK  22116.91667824 -.00055046  00000-0 -34651-2 0  9994,2 51137  53.2150 161.2910 0001869  43.8907 144.5265 15.08860648 16572,6917.816999999999,95.436,540.975,538.389,0.0
51137.0,STARLINK-3180,PAYLOAD,2022-04-27 14:00:01,15.08763391,0.0001987,53.2145,158.3,37.1844,174.4708,0.0051367,0.00082246,0.0,0 STARLINK-3180,1 51137U 22005AK  22117.58335648  .00082246  00000-0  51367-2 0  9997,2 51137  53.2145 158.3000 0001987  37.1844 174.4708 15.08763391 16672,6918.115,95.442,541.354,538.605,0.0
51137.0,STARLINK-3180,PAYLOAD,2022-04-27 22:00:00,15.08770624,0.0001879,53.2158,156.804,42.3765,180.7492,0.0066679,0.00107247,0.0,0 STARLINK-3180,1 51137U 22005AK  22117.91667824  .00107247  00000-0  66679-2 0  9999,2 51137  53.2158 156.8040 0001879  42.3765 180.7492 15.08770624 16726,6918.092,95.442,541.257,538.658,0.0
51137.0,STARLINK-3180,PAYLOAD,2022-04-28 06:00:00,15.08839267,0.0001971,53.2155,155.3064,45.0712,189.6068,-0.0011283,-0.000182,0.0,0 STARLINK-3180,1 51137U 22005AK  22118.25001157 -.00018200  00000-0 -11283-2 0  9991,2 51137  53.2155 155.3064 0001971  45.0712 189.6068 15.08839267 16779,6917.8830000000025,95.438,541.111,538.384,0.0
51137.0,STARLINK-3180,PAYLOAD,2022-04-28 14:00:01,15.08818281,0.0002111,53.216,153.8109,41.0752,205.1929,0.0027505,0.00043733,0.0,0 STARLINK-3180,1 51137U 22005AK  22118.58334491  .00043733  00000-0  27505-2 0  9998,2 51137  53.2160 153.8109 0002111  41.0752 205.1929 15.08818281  3594,6917.946999999999,95.439,541.2719999999998,538.351,0.0
51137.0,STARLINK-3180,PAYLOAD,2022-04-28 20:00:01,15.08841948,0.0001968,53.216,152.6872,44.9361,120.0216,0.00016631,2.36e-05,0.0,0 STARLINK-3180,1 51137U 22005AK  22118.83334491  .00002360  00000-0  16631-3 0  9996,2 51137  53.2160 152.6872 0001968  44.9361 120.0216 15.08841948 16869,6917.874,95.437,541.101,538.378,0.0
51137.0,STARLINK-3180,PAYLOAD,2022-04-29 14:00:01,15.08855483,0.0002108,53.2153,149.3216,41.5325,239.5258,-0.00039154,-6.517e-05,0.0,0 STARLINK-3180,1 51137U 22005AK  22119.58334491 -.00006517  00000-0 -39154-3 0  9994,2 51137  53.2153 149.3216 0002108  41.5325 239.5258 15.08855483  3638,6917.833000000001,95.437,541.156,538.24,0.0
51137.0,STARLINK-3180,PAYLOAD,2022-04-29 22:00:00,15.08816793,0.0001917,53.2152,147.8233,44.938,247.7445,0.0026885,0.00042732,0.0,0 STARLINK-3180,1 51137U 22005AK  22119.91667824  .00042732  00000-0  26885-2 0  9993,2 51137  53.2152 147.8233 0001917  44.9380 247.7445 15.08816793 17022,6917.951,95.439,541.1419999999998,538.49,0.0
51137.0,STARLINK-3180,PAYLOAD,2022-04-30 12:00:00,15.08819112,0.0002172,53.2153,145.2064,40.9014,182.0685,0.0031449,0.00050091,0.0,0 STARLINK-3180,1 51137U 22005AK  22120.50001157  .00050091  00000-0  31449-2 0  9990,2 51137  53.2153 145.2064 0002172  40.9014 182.0685 15.08819112 17116,6917.944,95.439,541.312,538.307,0.0
51137.0,STARLINK-3180,PAYLOAD,2022-04-30 14:00:01,15.08841808,0.0002136,53.215,144.832,40.3644,275.5014,0.0014898,0.00023503,0.0,0 STARLINK-3180,1 51137U 22005AK  22120.58334491  .00023503  00000-0  14898-2 0  9995,2 51137  53.2150 144.8320 0002136  40.3644 275.5014 15.08841808  3594,6917.875,95.437,541.2180000000002,538.262,0.0
51137.0,STARLINK-3180,PAYLOAD,2022-04-30 22:00:00,15.08840004,0.0001951,53.2152,143.3337,44.3147,283.1654,4.9874e-05,5.06e-06,0.0,0 STARLINK-3180,1 51137U 22005AK  22120.91667824  .00000506  00000-0  49874-4 0  9993,2 51137  53.2152 143.3337 0001951  44.3147 283.1654 15.08840004  3596,6917.88,95.438,541.095,538.396,0.0
51137.0,STARLINK-3180,PAYLOAD,2022-05-01 06:00:00,15.08842423,0.0002072,53.2153,141.8384,42.2785,296.7956,-0.0015639,-0.00025094,0.0,0 STARLINK-3180,1 51137U 22005AK  22121.25001157 -.00025094  00000-0 -15639-2 0  9993,2 51137  53.2153 141.8384 0002072  42.2785 296.7956 15.08842423 17229,6917.873000000001,95.437,541.1709999999998,538.305,0.0
51137.0,STARLINK-3180,PAYLOAD,2022-05-01 14:00:01,15.08831823,0.0002171,53.2151,140.3424,38.6554,312.0038,0.00065399,0.00010133,0.0,0 STARLINK-3180,1 51137U 22005AK  22121.58334491  .00010133  00000-0  65399-3 0  9994,2 51137  53.2151 140.3424 0002171  38.6554 312.0038 15.08831823  3601,6917.905,95.438,541.2719999999998,538.269,0.0
